{"type": "FeatureCollection", "features": [ {"type": "Feature", "properties": {"norad_id": 29868, "name": "FENGYUN 1C DEB", "group": "fengyun-1c-debris", "lat": 63.47811598203717, "lon": -117.6878438473618, "alt_km": 752.099175527147, "timestamp": "2025-12-26T11:25:45.466829+00:00", "meta": {"OBJECT_NAME": "FENGYUN 1C DEB", "OBJECT_ID": "1999-025FN", "EPOCH": "2025-12-26T01:29:38.768064", "MEAN_MOTION": 14.78594244, "ECCENTRICITY": 0.0195337, "INCLINATION": 97.9482, "RA_OF_ASC_NODE": 45.6457, "ARG_OF_PERICENTER": 320.8312, "MEAN_ANOMALY": 111.3955, "EPHEMERIS_TYPE": 0, "CLASSIFICATION_TYPE": "U", "NORAD_CAT_ID": 29868, "ELEMENT_SET_NO": 999, "REV_AT_EPOCH": 492, "BSTAR": 0.00065174, "MEAN_MOTION_DOT": 6.517e-05, "MEAN_MOTION_DDOT": 0}, "tle": {"line1": "1 29868U 99025FN  25360.06225426  .00006517  00000+0  65174-3 0  9995", "line2": "2 29868  97.9482  45.6457 0195337 320.8312 111.3955 14.78594244  4920"}}, "geometry": {"type": "Point", "coordinates": [-117.6878438473618, 63.47811598203717]}}, {"type": "Feature", "properties": {"norad_id": 29869, "name": "FENGYUN 1C DEB", "group": "fengyun-1c-debris", "lat": -80.82080355809204, "lon": 6.412930444376613, "alt_km": 742.991123459351, "timestamp": "2025-12-26T11:25:45.466838+00:00", "meta": {"OBJECT_NAME": "FENGYUN 1C DEB", "OBJECT_ID": "1999-025FP", "EPOCH": "2025-12-25T19:23:43.492128", "MEAN_MOTION": 14.36917024, "ECCENTRICITY": 0.00869035, "INCLINATION": 98.8747, "RA_OF_ASC_NODE": 290.5055, "ARG_OF_PERICENTER": 332.6079, "MEAN_ANOMALY": 86.6375, "EPHEMERIS_TYPE": 0, "CLASSIFICATION_TYPE": "U", "NORAD_CAT_ID": 29869, "ELEMENT_SET_NO": 999, "REV_AT_EPOCH": 99008, "BSTAR": 0.00042523577, "MEAN_MOTION_DOT": 1.265e-05, "MEAN_MOTION_DDOT": 0}, "tle": {"line1": "1 29869U 99025FP  25359.80814227  .00001265  00000+0  42524-3 0  9998", "line2": "2 29869  98.8747 290.5055 0086903 332.6079  86.6375 14.36917024990089"}}, "geometry": {"type": "Point", "coordinates": [6.412930444376613, -80.82080355809204]}}, {"type": "Feature", "properties": {"norad_id": 29870, "name": "FENGYUN 1C DEB", "group": "fengyun-1c-debris", "lat": -81.17283100751392, "lon": 44.449591441365435, "alt_km": 845.6464489978225, "timestamp": "2025-12-26T11:25:45.466846+00:00", "meta": {"OBJECT_NAME": "FENGYUN 1C DEB", "OBJECT_ID": "1999-025FQ", "EPOCH": "2025-12-25T21:00:22.044096", "MEAN_MOTION": 14.2898421, "ECCENTRICITY": 0.01206366, "INCLINATION": 98.4619, "RA_OF_ASC_NODE": 330.4076, "ARG_OF_PERICENTER": 153.7545, "MEAN_ANOMALY": 267.7555, "EPHEMERIS_TYPE": 0, "CLASSIFICATION_TYPE": "U", "NORAD_CAT_ID": 29870, "ELEMENT_SET_NO": 999, "REV_AT_EPOCH": 98781, "BSTAR": 5.3756535e-05, "MEAN_MOTION_DOT": 1.04e-06, "MEAN_MOTION_DDOT": 0}, "tle": {"line1": "1 29870U 99025FQ  25359.87525514  .00000104  00000+0  53757-4 0  9997", "line2": "2 29870  98.4619 330.4076 0120636 153.7545 267.7555 14.28984210987815"}}, "geometry": {"type": "Point", "coordinates": [44.449591441365435, -81.17283100751392]}}, {"type": "Feature", "properties": {"norad_id": 29871, "name": "FENGYUN 1C DEB", "group": "fengyun-1c-debris", "lat": 0.4958919436681003, "lon": 134.39665452294156, "alt_km": 767.9431771007403, "timestamp": "2025-12-26T11:25:45.466856+00:00", "meta": {"OBJECT_NAME": "FENGYUN 1C DEB", "OBJECT_ID": "1999-025FR", "EPOCH": "2025-12-26T02:33:45.154368", "MEAN_MOTION": 14.42717409, "ECCENTRICITY": 0.0059057, "INCLINATION": 98.975, "RA_OF_ASC_NODE": 313.9296, "ARG_OF_PERICENTER": 68.4927, "MEAN_ANOMALY": 352.5192, "EPHEMERIS_TYPE": 0, "CLASSIFICATION_TYPE": "U", "NORAD_CAT_ID": 29871, "ELEMENT_SET_NO": 999, "REV_AT_EPOCH": 98894, "BSTAR": 0.00098802, "MEAN_MOTION_DOT": 3.311e-05, "MEAN_MOTION_DDOT": 0}, "tle": {"line1": "1 29871U 99025FR  25360.10677262  .00003311  00000+0  98802-3 0  9996", "line2": "2 29871  98.9750 313.9296 0059057  68.4927 352.5192 14.42717409988946"}}, "geometry": {"type": "Point", "coordinates": [134.39665452294156, 0.4958919436681003]}}, {"type": "Feature", "properties": {"norad_id": 29872, "name": "FENGYUN 1C DEB", "group": "fengyun-1c-debris", "lat": 10.650074167069942, "lon": -162.3311711027242, "alt_km": 797.2435950929703, "timestamp": "2025-12-26T11:25:45.466864+00:00", "meta": {"OBJECT_NAME": "FENGYUN 1C DEB", "OBJECT_ID": "1999-025FS", "EPOCH": "2025-12-25T14:35:45.428352", "MEAN_MOTION": 14.39012504, "ECCENTRICITY": 0.0234927, "INCLINATION": 98.3448, "RA_OF_ASC_NODE": 15.2418, "ARG_OF_PERICENTER": 274.7458, "MEAN_ANOMALY": 82.694, "EPHEMERIS_TYPE": 0, "CLASSIFICATION_TYPE": "U", "NORAD_CAT_ID": 29872, "ELEMENT_SET_NO": 999, "REV_AT_EPOCH": 98777, "BSTAR": 0.00053526, "MEAN_MOTION_DOT": 2.228e-05, "MEAN_MOTION_DDOT": 0}, "tle": {"line1": "1 29872U 99025FS  25359.60816468  .00002228  00000+0  53526-3 0  9993", "line2": "2 29872  98.3448  15.2418 0234927 274.7458  82.6940 14.39012504987777"}}, "geometry": {"type": "Point", "coordinates": [-162.3311711027242, 10.650074167069942]}}, {"type": "Feature", "properties": {"norad_id": 29873, "name": "FENGYUN 1C DEB", "group": "fengyun-1c-debris", "lat": 33.32032381887956, "lon": -145.33337934318965, "alt_km": 938.345266193347, "timestamp": "2025-12-26T11:25:45.466873+00:00", "meta": {"OBJECT_NAME": "FENGYUN 1C DEB", "OBJECT_ID": "1999-025FT", "EPOCH": "2025-12-26T03:17:37.218912", "MEAN_MOTION": 13.98154627, "ECCENTRICITY": 0.0092482, "INCLINATION": 99.4415, "RA_OF_ASC_NODE": 220.598, "ARG_OF_PERICENTER": 162.0588, "MEAN_ANOMALY": 327.4107, "EPHEMERIS_TYPE": 0, "CLASSIFICATION_TYPE": "U", "NORAD_CAT_ID": 29873, "ELEMENT_SET_NO": 999, "REV_AT_EPOCH": 96502, "BSTAR": 0.00041893, "MEAN_MOTION_DOT": 5.72e-06, "MEAN_MOTION_DDOT": 0}, "tle": {"line1": "1 29873U 99025FT  25360.13723633  .00000572  00000+0  41893-3 0  9999", "line2": "2 29873  99.4415 220.5980 0092482 162.0588 327.4107 13.98154627965026"}}, "geometry": {"type": "Point", "coordinates": [-145.33337934318965, 33.32032381887956]}}, {"type": "Feature", "properties": {"norad_id": 29874, "name": "FENGYUN 1C DEB", "group": "fengyun-1c-debris", "lat": -27.85708811072847, "lon": -98.69909198884717, "alt_km": 731.0287804327418, "timestamp": "2025-12-26T11:25:45.466882+00:00", "meta": {"OBJECT_NAME": "FENGYUN 1C DEB", "OBJECT_ID": "1999-025FU", "EPOCH": "2025-12-25T15:31:22.650816", "MEAN_MOTION": 14.2900885, "ECCENTRICITY": 0.0103854, "INCLINATION": 98.3782, "RA_OF_ASC_NODE": 256.0365, "ARG_OF_PERICENTER": 313.548, "MEAN_ANOMALY": 73.433, "EPHEMERIS_TYPE": 0, "CLASSIFICATION_TYPE": "U", "NORAD_CAT_ID": 29874, "ELEMENT_SET_NO": 999, "REV_AT_EPOCH": 97032, "BSTAR": 0.0034166, "MEAN_MOTION_DOT": 9.129e-05, "MEAN_MOTION_DDOT": 0}, "tle": {"line1": "1 29874U 99025FU  25359.64678994  .00009129  00000+0  34166-2 0  9994", "line2": "2 29874  98.3782 256.0365 0103854 313.5480  73.4330 14.29008850970329"}}, "geometry": {"type": "Point", "coordinates": [-98.69909198884717, -27.85708811072847]}}, {"type": "Feature", "properties": {"norad_id": 29875, "name": "FENGYUN 1C DEB", "group": "fengyun-1c-debris", "lat": -22.908604480208744, "lon": 54.89881844687765, "alt_km": 773.1386145902288, "timestamp": "2025-12-26T11:25:45.466891+00:00", "meta": {"OBJECT_NAME": "FENGYUN 1C DEB", "OBJECT_ID": "1999-025FV", "EPOCH": "2025-12-26T03:23:53.426976", "MEAN_MOTION": 14.24880394, "ECCENTRICITY": 0.0082581, "INCLINATION": 98.4032, "RA_OF_ASC_NODE": 50.997, "ARG_OF_PERICENTER": 24.3983, "MEAN_ANOMALY": 37.6983, "EPHEMERIS_TYPE": 0, "CLASSIFICATION_TYPE": "U", "NORAD_CAT_ID": 29875, "ELEMENT_SET_NO": 999, "REV_AT_EPOCH": 98513, "BSTAR": 2.5066e-05, "MEAN_MOTION_DOT": 1.9e-07, "MEAN_MOTION_DDOT": 0}, "tle": {"line1": "1 29875U 99025FV  25360.14159059  .00000019  00000+0  25066-4 0  9998", "line2": "2 29875  98.4032  50.9970 0082581  24.3983  37.6983 14.24880394985137"}}, "geometry": {"type": "Point", "coordinates": [54.89881844687765, -22.908604480208744]}}, {"type": "Feature", "properties": {"norad_id": 29876, "name": "FENGYUN 1C DEB", "group": "fengyun-1c-debris", "lat": 6.631663782860157, "lon": 49.28078123547281, "alt_km": 788.2199390861861, "timestamp": "2025-12-26T11:25:45.466900+00:00", "meta": {"OBJECT_NAME": "FENGYUN 1C DEB", "OBJECT_ID": "1999-025FW", "EPOCH": "2025-12-26T03:03:51.070752", "MEAN_MOTION": 14.20305689, "ECCENTRICITY": 0.0060747, "INCLINATION": 98.3314, "RA_OF_ASC_NODE": 49.9286, "ARG_OF_PERICENTER": 338.2493, "MEAN_ANOMALY": 47.0905, "EPHEMERIS_TYPE": 0, "CLASSIFICATION_TYPE": "U", "NORAD_CAT_ID": 29876, "ELEMENT_SET_NO": 999, "REV_AT_EPOCH": 98107, "BSTAR": 0.0001347, "MEAN_MOTION_DOT": 2.53e-06, "MEAN_MOTION_DDOT": 0}, "tle": {"line1": "1 29876U 99025FW  25360.12767443  .00000253  00000+0  13470-3 0  9994", "line2": "2 29876  98.3314  49.9286 0060747 338.2493  47.0905 14.20305689981074"}}, "geometry": {"type": "Point", "coordinates": [49.28078123547281, 6.631663782860157]}}, {"type": "Feature", "properties": {"norad_id": 29877, "name": "FENGYUN 1C DEB", "group": "fengyun-1c-debris", "lat": 81.4245223620417, "lon": -79.53407900954839, "alt_km": 800.7486379879219, "timestamp": "2025-12-26T11:25:45.466909+00:00", "meta": {"OBJECT_NAME": "FENGYUN 1C DEB", "OBJECT_ID": "1999-025FX", "EPOCH": "2025-12-25T23:30:27.661248", "MEAN_MOTION": 14.24818643, "ECCENTRICITY": 0.0046479, "INCLINATION": 98.5372, "RA_OF_ASC_NODE": 4.9253, "ARG_OF_PERICENTER": 179.4396, "MEAN_ANOMALY": 243.8692, "EPHEMERIS_TYPE": 0, "CLASSIFICATION_TYPE": "U", "NORAD_CAT_ID": 29877, "ELEMENT_SET_NO": 999, "REV_AT_EPOCH": 98162, "BSTAR": 0.00041295, "MEAN_MOTION_DOT": 9.31e-06, "MEAN_MOTION_DDOT": 0}, "tle": {"line1": "1 29877U 99025FX  25359.97948682  .00000931  00000+0  41295-3 0  9991", "line2": "2 29877  98.5372   4.9253 0046479 179.4396 243.8692 14.24818643981622"}}, "geometry": {"type": "Point", "coordinates": [-79.53407900954839, 81.4245223620417]}}]}